0 FENGYUN 1C DEB
1 30180U 99025UM  13282.14069645  .00012683  00000-0  28659-2 0   159
2 30180 099.0464 087.1260 0107856 254.8205 158.8443 14.52827322354554
0 FENGYUN 1C DEB
1 30180U 99025UM  13283.17407301  .00011375  00000-0  25711-2 0   162
2 30180 099.0463 088.2403 0107860 251.7205 163.6156 14.52845425354701
0 FENGYUN 1C DEB
1 30180U 99025UM  13284.20689591  .00011540  00000-0  26071-2 0   175
2 30180 099.0461 089.3542 0107864 248.6244 165.5566 14.52861765354854
0 FENGYUN 1C DEB
1 30180U 99025UM  13285.44663617  .00010059  00000-0  22736-2 0   182
2 30180 099.0456 090.6912 0107871 244.9167 169.8088 14.52884350355037
0 FENGYUN 1C DEB
1 30180U 99025UM  13286.76727554  .00010701  00000-0  24164-2 0   191
2 30180 099.0454 092.1153 0107841 240.9170 237.3571 14.52908169355220
0 FENGYUN 1C DEB
1 30180U 99025UM  13288.20083034  .00018379  00000-0  41333-2 0   208
2 30180 099.0450 093.6613 0107802 236.6571 175.5611 14.52943593355438
0 FENGYUN 1C DEB
1 30180U 99025UM  13289.43565793  .00014758  00000-0  33211-2 0   215
2 30180 099.0451 094.9930 0107780 232.9279 154.5409 14.52973329355616
0 FENGYUN 1C DEB
1 30180U 99025UM  13290.69565532  .00015656  00000-0  35200-2 0   225
2 30180 099.0455 096.3522 0107750 229.1705 265.2550 14.53002940355791
0 FENGYUN 1C DEB
1 30180U 99025UM  13291.72682039  .00014208  00000-0  31946-2 0   238
2 30180 099.0456 097.4643 0107746 226.0829 259.1313 14.53027398355946
0 FENGYUN 1C DEB
1 30180U 99025UM  13292.76002154  .00014013  00000-0  31492-2 0   248
2 30180 099.0461 098.5788 0107695 223.0043 263.7348 14.53055392356093
0 FENGYUN 1C DEB
1 30180U 99025UM  13294.19249544  .00016103  00000-0  36135-2 0   255
2 30180 099.0465 100.1241 0107655 218.7255 197.0824 14.53088761356301
0 FENGYUN 1C DEB
1 30180U 99025UM  13295.43409189  .00017448  00000-0  39111-2 0   267
2 30180 099.0467 101.4636 0107554 215.0656 212.0328 14.53121670356481
